[{"OBJECT_NAME":"STARLINK-5246","OBJECT_ID":"2022-141AT","EPOCH":"2026-03-09T23:28:38.960544","MEAN_MOTION":15.08844367,"ECCENTRICITY":0.0001246,"INCLINATION":53.2201,"RA_OF_ASC_NODE":352.6702,"ARG_OF_PERICENTER":87.9274,"MEAN_ANOMALY":272.1861,"EPHEMERIS_TYPE":0,"CLASSIFICATION_TYPE":"U","NORAD_CAT_ID":54198,"ELEMENT_SET_NO":999,"REV_AT_EPOCH":18604,"BSTAR":0.00025108637,"MEAN_MOTION_DOT":3.711e-5,"MEAN_MOTION_DDOT":0},{"OBJECT_NAME":"SEDNA-2","OBJECT_ID":"2025-009DQ","EPOCH":"2026-03-09T19:10:28.282944","MEAN_MOTION":15.10492622,"ECCENTRICITY":0.0010309,"INCLINATION":97.4615,"RA_OF_ASC_NODE":144.8075,"ARG_OF_PERICENTER":53.026,"MEAN_ANOMALY":307.1912,"EPHEMERIS_TYPE":0,"CLASSIFICATION_TYPE":"U","NORAD_CAT_ID":63153,"ELEMENT_SET_NO":999,"REV_AT_EPOCH":6311,"BSTAR":0.00049393403,"MEAN_MOTION_DOT":8.085e-5,"MEAN_MOTION_DDOT":0}]
